ONEWEB-0229             
1 48779U 21045N   24309.92168929  .00000008  00000+0 -11657-4 0  9993
2 48779  87.9110  16.4946 0001948  97.6415 262.4936 13.15548897166935
ONEWEB-0228             
1 48780U 21045P   24309.72598340  .00000249  00000+0  62690-3 0  9995
2 48780  87.9109  16.5136 0001857  95.3963 264.7379 13.15547481166821
ONEWEB-0232             
1 48781U 21045Q   24309.92961233  .00000174  00000+0  42810-3 0  9992
2 48781  87.9104  16.4801 0001818  97.9889 262.1448 13.15548516167175
ONEWEB-0234             
1 48783U 21045S   24309.92723195  .00000099  00000+0  22982-3 0  9991
2 48783  87.9111  16.4804 0000503 101.2634 258.8553 13.15549124167002
ONEWEB-0238             
1 48784U 21045T   24309.88128352  .00000238  00000+0  59811-3 0  9997
2 48784  87.9110  16.5065 0001564 100.2514 259.8792 13.15549008166899
ONEWEB-0240             
1 48785U 21045U   24309.89079875  .00000157  00000+0  38396-3 0  9999
2 48785  87.9110  16.4712 0001843  84.9136 275.2205 13.15551303166922
ONEWEB-0246             
1 48786U 21045V   24309.88524441  .00000279  00000+0  70717-3 0  9991
2 48786  87.9112  16.4790 0001910  97.6710 262.4637 13.15548985166799
